{"type":"FeatureCollection","features":[{"type":"Feature","properties":{"id":"D1","name":"Quận 1"},"geometry":{"type":"MultiPolygon","coordinates":[[[[106.6814074,10.7655393],[106.6869967,10.7532468],[106.6959468,10.7603402],[106.702854,10.7674799],[106.7083326,10.7694173],[106.7078906,10.7729406],[106.7087561,10.7781873],[106.7109907,10.7824209],[106.7149636,10.7856262],[106.7129466,10.7874978],[106.7086336,10.7879039],[106.7060615,10.7922755],[106.7008835,10.7936318],[106.6952102,10.7936471],[106.6946591,10.7951116],[106.6910459,10.7959626],[106.6874783,10.7950171],[106.6852901,10.7970969],[106.6848718,10.7944885],[106.6859963,10.7926141],[106.6980689,10.7828691],[106.6814074,10.7655393]]]]}},{"type":"Feature","properties":{"id":"D3","name":"Quận 3"},"geometry":{"type":"MultiPolygon","coordinates":[[[[106.6642292,10.7871091],[106.6816385,10.7778339],[106.6827459,10.7759107],[106.6743967,10.7676741],[106.6814074,10.7655393],[106.6980689,10.7828691],[106.6861391,10.7924956],[106.6721264,10.7897796],[106.6710277,10.7893829],[106.6707227,10.7879374],[106.6647956,10.7901153],[106.6652847,10.7885763],[106.6642292,10.7871091]]]]}},{"type":"Feature","properties":{"id":"D4","name":"Quận 4"},"geometry":{"type":"MultiPolygon","coordinates":[[[[106.6863906,10.7518373],[106.7169189,10.7527398],[106.7195435,10.7542638],[106.7219976,10.7593357],[106.7127517,10.7636645],[106.7103329,10.7657558],[106.708332,10.7694124],[106.7064395,10.7690846],[106.702854,10.7674799],[106.6958792,10.7603001],[106.6890914,10.7553575],[106.6863906,10.7518373]]]]}},{"type":"Feature","properties":{"id":"D5","name":"Quận 5"},"geometry":{"type":"MultiPolygon","coordinates":[[[[106.6504956,10.7514818],[106.6532793,10.7516643],[106.6549911,10.7461927],[106.6655191,10.7502213],[106.6750696,10.7487825],[106.677706,10.7517062],[106.6811737,10.7520324],[106.6850226,10.7510157],[106.6869967,10.7532468],[106.6816127,10.7654858],[106.6746743,10.7610391],[106.6510697,10.7563413],[106.6504956,10.7514818]]]]}},{"type":"Feature","properties":{"id":"D7","name":"Quận 7"},"geometry":{"type":"MultiPolygon","coordinates":[[[[106.6901985,10.7283358],[106.6905664,10.7308593],[106.6937774,10.7335791],[106.6948792,10.736399],[106.6918411,10.7418927],[106.692688,10.745715],[106.6902101,10.7520798],[106.7179565,10.7530278],[106.7203445,10.7554435],[106.7219976,10.7593357],[106.7277069,10.7592563],[106.7322159,10.7609786],[106.7340088,10.7656602],[106.7349777,10.7744006],[106.7379227,10.7772912],[106.7416382,10.777172],[106.7452393,10.7753915],[106.7505798,10.7704829],[106.7524643,10.7652692],[106.7511215,10.7591762],[106.7442627,10.7511205],[106.7436829,10.7484998],[106.7443695,10.744192],[106.7478561,10.7414407],[106.7585373,10.7438172],[106.7667857,10.7403456],[106.7528834,10.7219416],[106.7512531,10.7134729],[106.7520952,10.7043534],[106.7445525,10.7033033],[106.7361144,10.7034578],[106.7327422,10.697793],[106.7258071,10.6998796],[106.7258681,10.7024727],[106.7244262,10.7060232],[106.7257057,10.7110064],[106.7228164,10.7157984],[106.7247848,10.7191658],[106.724388,10.7209225],[106.720375,10.7223883],[106.7177962,10.7189636],[106.7112044,10.7206268],[106.708229,10.7195873],[106.7060622,10.7248163],[106.7038358,10.7253601],[106.6974791,10.7244377],[106.6902364,10.7253805],[106.6901985,10.7283358]]]]}},{"type":"Feature","properties":{"id":"PN","name":"Quận Phú Nhuận"},"geometry":{"type":"MultiPolygon","coordinates":[[[[106.6659559,10.7908605],[106.6684767,10.7941616],[106.6684477,10.7982292],[106.6698358,10.7985977],[106.6670141,10.8005947],[106.6689712,10.8030539],[106.6700131,10.8076717],[106.6710502,10.8078704],[106.6707223,10.8099399],[106.6722519,10.8111621],[106.6727372,10.814152],[106.6760521,10.8112022],[106.676953,10.8122594],[106.6785251,10.8111175],[106.6786076,10.8120592],[106.6804477,10.8119213],[106.6807764,10.8109642],[106.683983,10.8099366],[106.6842992,10.8065375],[106.6870707,10.8052455],[106.6870474,10.8061622],[106.6885224,10.8056313],[106.6879239,10.8037436],[106.6921476,10.8022894],[106.6919572,10.7959329],[106.6873877,10.7948627],[106.6852732,10.7968688],[106.6851211,10.7944282],[106.6863946,10.7930891],[106.6858743,10.79227],[106.6739631,10.7903143],[106.6710277,10.7893829],[106.6707227,10.7879374],[106.6668168,10.7894862],[106.6659559,10.7908605]]]]}},{"type":"Feature","properties":{"id":"BT","name":"Quận Bình Thạnh"},"geometry":{"type":"MultiPolygon","coordinates":[[[[106.683983,10.8099366],[106.6842992,10.8065375],[106.6870707,10.8052455],[106.6870474,10.8061622],[106.6885224,10.8056313],[106.6879239,10.8037436],[106.6921476,10.8022894],[106.691528,10.7955806],[106.6923324,10.7950235],[106.6943564,10.7948981],[106.6950206,10.7934546],[106.6994158,10.7935269],[106.7055456,10.7921198],[106.7086336,10.7879039],[106.7129466,10.7874978],[106.7149636,10.7856262],[106.720116,10.7866484],[106.7235685,10.7888516],[106.7267042,10.7943064],[106.7267075,10.7999923],[106.7233248,10.8054684],[106.7218855,10.809838],[106.7251563,10.8167215],[106.7318188,10.8201092],[106.7342417,10.8188108],[106.7377307,10.8106596],[106.7438462,10.8083622],[106.7483952,10.809669],[106.7508843,10.8136103],[106.7508843,10.8289959],[106.7470648,10.8337378],[106.7394259,10.835466],[106.7361214,10.8328948],[106.7326023,10.8270358],[106.728697,10.8233897],[106.7229464,10.8209238],[106.7159297,10.8206498],[106.7124965,10.8214296],[106.7103293,10.8229893],[106.7091062,10.8253498],[106.7078402,10.8344965],[106.7028405,10.839133],[106.699579,10.8343912],[106.6963603,10.8330423],[106.6952231,10.8309559],[106.6997564,10.8302999],[106.6996516,10.8286718],[106.7010504,10.8270316],[106.6990354,10.8255185],[106.6985689,10.823347],[106.6935266,10.8222363],[106.6940793,10.8205614],[106.6927204,10.8186693],[106.6933359,10.8178808],[106.6920813,10.8175205],[106.6912811,10.8158268],[106.6893808,10.814991],[106.6882734,10.8158346],[106.6849374,10.8138164],[106.6851877,10.8114717],[106.683983,10.8099366]]]]}},{"type":"Feature","properties":{"id":"D2","name":"Thành Phố Thủ Đức"},"geometry":{"type":"MultiPolygon","coordinates":[[[[106.7028405,10.839133],[106.6984045,10.8429285],[106.698087,10.8478205],[106.6990654,10.8501054],[106.7042263,10.8518085],[106.7108603,10.8511219],[106.715051,10.8521304],[106.7172029,10.8541449],[106.7182782,10.8570693],[106.7163902,10.86302],[106.7131999,10.86587],[106.7153999,10.86885],[106.7149999,10.87255],[106.7234999,10.87223],[106.7211999,10.87651],[106.7121999,10.87767],[106.7177999,10.88129],[106.7166999,10.88434],[106.7173999,10.88793],[106.7142999,10.88713],[106.7144999,10.88823],[106.7129999,10.88977],[106.7176999,10.89642],[106.7274825,10.8902321],[106.7285966,10.8910541],[106.7291999,10.88987],[106.7330996,10.8906676],[106.7318216,10.8857356],[106.7368465,10.8846816],[106.7341767,10.8805112],[106.7360652,10.8796048],[106.7366583,10.8806],[106.7384239,10.8794121],[106.7396909,10.8810178],[106.7431586,10.8803038],[106.7449811,10.8816265],[106.745658,10.8807856],[106.7446481,10.8800647],[106.7471081,10.8774339],[106.7483693,10.8781803],[106.7493257,10.8767777],[106.7503459,10.8772876],[106.7513233,10.8754996],[106.7464237,10.873882],[106.7470568,10.8720434],[106.7459911,10.8717037],[106.7479091,10.8692827],[106.7486249,10.8656401],[106.7518999,10.86371],[106.7538999,10.86576],[106.7622018,10.8676588],[106.7631528,10.8701679],[106.7603163,10.8724278],[106.7616999,10.87456],[106.7619127,10.878746],[106.7604752,10.8812944],[106.7644769,10.8848699],[106.7668361,10.8915634],[106.7676437,10.89168],[106.7672615,10.892389],[106.7684732,10.8922608],[106.7684439,10.8938263],[106.770218,10.8931679],[106.7806064,10.8811856],[106.7821064,10.8771956],[106.7803317,10.8682665],[106.7882763,10.8671889],[106.7879176,10.8700734],[106.7889261,10.8719805],[106.792142,10.8720147],[106.7951302,10.8736127],[106.797977,10.8735451],[106.7985932,10.8720719],[106.8013277,10.873573],[106.8045762,10.8737935],[106.8052246,10.8749365],[106.8086062,10.8731176],[106.8130175,10.8791337],[106.8138395,10.8784481],[106.8162916,10.881227],[106.817191,10.881066],[106.8174818,10.8835976],[106.8191081,10.8842429],[106.819402,10.8857513],[106.8217842,10.8858867],[106.824128,10.8882349],[106.8238947,10.8928774],[106.8250914,10.8928681],[106.8267284,10.8947951],[106.8298536,10.8949756],[106.8339332,10.898335],[106.8403607,10.8989977],[106.8436148,10.8844572],[106.8509868,10.8760166],[106.8467022,10.8653568],[106.8468263,10.8623001],[106.8542362,10.8446686],[106.8771366,10.8198366],[106.8815532,10.8106588],[106.8815567,10.8065311],[106.8786841,10.8021247],[106.8756789,10.7985085],[106.8657354,10.7912146],[106.8642654,10.7884521],[106.8649946,10.7844494],[106.8713587,10.7772307],[106.8733521,10.7736419],[106.8738005,10.7687001],[106.8694651,10.7648269],[106.8652882,10.7646369],[106.8609354,10.7667159],[106.8536415,10.7741461],[106.8465768,10.7754044],[106.8390247,10.771997],[106.8355853,10.7691958],[106.8289197,10.7606319],[106.8248281,10.7595802],[106.8234613,10.7607717],[106.8230166,10.7634726],[106.8256022,10.7725292],[106.825296,10.7772193],[106.8225318,10.7805166],[106.8194156,10.7808846],[106.814539,10.7786541],[106.807322,10.7719552],[106.8013778,10.760408],[106.7741509,10.7476922],[106.7697017,10.7442034],[106.7667857,10.7403456],[106.7585373,10.7438172],[106.7501297,10.7415523],[106.7470245,10.7416944],[106.7443695,10.744192],[106.7438583,10.7497815],[106.7467651,10.7548922],[106.7511215,10.7591762],[106.7525406,10.7644881],[106.7505798,10.7704829],[106.7452393,10.7753915],[106.7404099,10.777399],[106.7363663,10.7765674],[106.7346954,10.7734746],[106.7340088,10.7656602],[106.7322159,10.7609786],[106.729805,10.7595986],[106.7240906,10.7589349],[106.7182761,10.7606832],[106.7111806,10.7648337],[106.7083887,10.7694189],[106.7080516,10.7742237],[106.7088877,10.7783879],[106.7109907,10.7824209],[106.7149636,10.7856262],[106.722122,10.7877205],[106.7261652,10.7927836],[106.7267075,10.7999923],[106.7233248,10.8054684],[106.7218855,10.809838],[106.7251563,10.8167215],[106.7318188,10.8201092],[106.7342417,10.8188108],[106.7377307,10.8106596],[106.7438462,10.8083622],[106.7483952,10.809669],[106.7508843,10.8136103],[106.7508843,10.8289959],[106.7470648,10.8337378],[106.7394259,10.835466],[106.7361214,10.8328948],[106.7326023,10.8270358],[106.728697,10.8233897],[106.7229464,10.8209238],[106.7159297,10.8206498],[106.7124965,10.8214296],[106.7103293,10.8229893],[106.7091062,10.8253498],[106.7078402,10.8344965],[106.7028405,10.839133]]]]}}]}